H1 CPF 01  gfz 2021 05 25 12  6452 tandemx   
H2 1003001  6202 36605    2021 05 25 12 59 42 2021 05 30 00 00 42   120 1 1  0 0 0
H9
10 0 59359  46782.000000  0    1805692.648   4322832.421   5040628.034
10 0 59359  46902.000000  0    1728589.909   3598089.806   5604048.513
10 0 59359  47022.000000  0    1608082.009   2812238.224   6068903.603
10 0 59359  47142.000000  0    1445341.060   1979768.901   6427055.603
10 0 59359  47262.000000  0    1242533.638   1115945.837   6672242.834
10 0 59359  47382.000000  0    1002793.116    236522.416   6800182.176
10 0 59359  47502.000000  0     730171.377   -642544.995   6808638.776
10 0 59359  47622.000000  0     429570.180  -1505386.143   6697464.446
10 0 59359  47742.000000  0     106652.843  -2336503.578   6468600.176
10 0 59359  47862.000000  0    -232262.340  -3121051.691   6126044.368
10 0 59359  47982.000000  0    -580323.990  -3845103.341   5675784.893
10 0 59359  48102.000000  0    -930282.780  -4495897.821   5125699.417
10 0 59359  48222.000000  0   -1274639.177  -5062070.728   4485426.509
10 0 59359  48342.000000  0   -1605802.112  -5533862.317   3766203.197
10 0 59359  48462.000000  0   -1916253.313  -5903295.926   2980669.632
10 0 59359  48582.000000  0   -2198714.393  -6164321.404   2142646.707
10 0 59359  48702.000000  0   -2446312.774  -6312921.622   1266890.152
10 0 59359  48822.000000  0   -2652741.069  -6347179.087    368824.841
10 0 59359  48942.000000  0   -2812406.657  -6267300.564   -535734.674
10 0 59359  49062.000000  0   -2920567.541  -6075598.768  -1430871.508
10 0 59359  49182.000000  0   -2973451.294  -5776431.347  -2300855.208
10 0 59359  49302.000000  0   -2968354.085  -5376099.128  -3130425.573
10 0 59359  49422.000000  0   -2903716.804  -4882705.992  -3905065.339
10 0 59359  49542.000000  0   -2779176.486  -4305984.927  -4611254.641
10 0 59359  49662.000000  0   -2595593.017  -3657096.667  -5236703.004
10 0 59359  49782.000000  0   -2355051.410  -2948405.838  -5770556.147
10 0 59359  49902.000000  0   -2060839.807  -2193239.554  -6203575.177
10 0 59359  50022.000000  0   -1717402.828  -1405633.381  -6528285.893
10 0 59359  50142.000000  0   -1330272.429   -600070.109  -6739095.849
10 0 59359  50262.000000  0    -905978.807    208783.429  -6832379.652
10 0 59359  50382.000000  0    -451941.613   1006337.115  -6806534.029
10 0 59359  50502.000000  0      23657.258   1778333.811  -6662002.171
10 0 59359  50622.000000  0     512016.052   2511097.246  -6401267.519
10 0 59359  50742.000000  0    1003872.218   3191770.303  -6028817.839
10 0 59359  50862.000000  0    1489674.269   3808539.006  -5551075.363
10 0 59359  50982.000000  0    1959762.969   4350837.885  -4976296.431
10 0 59359  51102.000000  0    2404560.757   4809535.391  -4314440.928
10 0 59359  51222.000000  0    2814765.141   5177095.345  -3577009.774
10 0 59359  51342.000000  0    3181542.049   5447709.521  -2776853.676
10 0 59359  51462.000000  0    3496716.177   5617399.525  -1927954.735
10 0 59359  51582.000000  0    3752952.735   5684083.457  -1045183.563
10 0 59359  51702.000000  0    3943925.590   5647605.984   -144036.272
10 0 59359  51822.000000  0    4064467.425   5509729.666    759643.250
10 0 59359  51942.000000  0    4110698.079   5274086.858   1649949.608
10 0 59359  52062.000000  0    4080127.168   4946094.134   2511203.022
10 0 59359  52182.000000  0    3971729.979   4532833.141   3328235.164
10 0 59359  52302.000000  0    3785990.519   4042894.517   4086664.115
10 0 59359  52422.000000  0    3524915.668   3486195.306   4773150.372
10 0 59359  52542.000000  0    3192017.747   2873774.062   5375635.426
10 0 59359  52662.000000  0    2792263.320   2217564.676   5883552.177
10 0 59359  52782.000000  0    2331996.800   1530158.861   6288004.248
10 0 59359  52902.000000  0    1818836.533    824560.625   6581916.822
10 0 59359  53022.000000  0    1261545.257    113938.637   6760153.560
10 0 59359  53142.000000  0     669878.528   -588618.264   6819601.535
10 0 59359  53262.000000  0      54413.300  -1270342.461   6759223.376
10 0 59359  53382.000000  0    -573641.480  -1919019.554   6580073.802
10 0 59359  53502.000000  0   -1202648.944  -2523207.321   6285281.456
10 0 59359  53622.000000  0   -1820758.112  -3072437.504   5879996.163
10 0 59359  53742.000000  0   -2416125.084  -3557398.616   5371305.632
10 0 59359  53862.000000  0   -2977141.676  -3970098.378   4768119.510
10 0 59359  53982.000000  0   -3492666.238  -4304000.915   4081018.689
10 0 59359  54102.000000  0   -3952248.591  -4554135.061   3322072.410
10 0 59359  54222.000000  0   -4346344.754  -4717172.467   2504627.671
10 0 59359  54342.000000  0   -4666518.474  -4791474.089   1643073.779
10 0 59359  54462.000000  0   -4905624.054  -4777102.119    752584.371
10 0 59359  54582.000000  0   -5057965.062  -4675796.988   -151156.552
10 0 59359  54702.000000  0   -5119425.294  -4490920.238  -1052239.345
10 0 59359  54822.000000  0   -5087567.904  -4227364.293  -1934818.625
10 0 59359  54942.000000  0   -4961699.375  -3891430.552  -2783400.787
10 0 59359  55062.000000  0   -4742897.345  -3490680.447  -3583121.153
10 0 59359  55182.000000  0   -4434003.458  -3033764.575  -4320005.937
10 0 59359  55302.000000  0   -4039581.639  -2530233.863  -4981214.920
10 0 59359  55422.000000  0   -3565842.901  -1990337.397  -5555259.762
10 0 59359  55542.000000  0   -3020539.804  -1424812.287  -6032195.068
10 0 59359  55662.000000  0   -2412833.325   -844669.688  -6403780.260
10 0 59359  55782.000000  0   -1753134.153   -260981.727  -6663610.607
10 0 59359  55902.000000  0   -1052922.380    315326.320  -6807215.355
10 0 59359  56022.000000  0    -324550.636    873674.913  -6832125.492
10 0 59359  56142.000000  0     418968.978   1404019.526  -6737911.497
10 0 59359  56262.000000  0    1164190.437   1897025.905  -6526191.018
10 0 59359  56382.000000  0    1897472.160   2344231.702  -6200605.670
10 0 59359  56502.000000  0    2605221.805   2738190.448  -5766765.014
10 0 59359  56622.000000  0    3274144.956   3072595.715  -5232158.639
10 0 59359  56742.000000  0    3891492.854   3342383.856  -4606038.833
10 0 59359  56862.000000  0    4445307.952   3543814.643  -3899272.186
10 0 59359  56982.000000  0    4924660.814   3674526.167  -3124160.256
10 0 59359  57102.000000  0    5319871.774   3733562.764  -2294231.697
10 0 59359  57222.000000  0    5622713.517   3721376.049  -1424009.671
10 0 59359  57342.000000  0    5826589.217   3639796.676   -528756.714
10 0 59359  57462.000000  0    5926680.708   3491977.746    375796.553
10 0 59359  57582.000000  0    5920063.479   3282310.944   1273734.468
10 0 59359  57702.000000  0    5805783.482   3016316.673   2149245.014
10 0 59359  57822.000000  0    5584894.144   2700512.041   2986906.788
10 0 59359  57942.000000  0    5260452.941   2342259.188   3771969.474
10 0 59359  58062.000000  0    4837475.854   1949597.534   4490619.877
10 0 59359  58182.000000  0    4322852.995   1531065.292   5130226.314
10 0 59359  58302.000000  0    3725230.841   1095514.916   5679561.282
10 0 59359  58422.000000  0    3054856.664    651925.972   6128997.138
10 0 59359  58542.000000  0    2323394.427    209220.395   6470667.392
10 0 59359  58662.000000  0    1543717.974   -223915.009   6698597.963
10 0 59359  58782.000000  0     729681.741   -639197.938   6808807.619
10 0 59359  58902.000000  0    -104128.040  -1028908.493   6799373.224
10 0 59359  59022.000000  0    -942654.840  -1386031.977   6670460.352
10 0 59359  59142.000000  0   -1770643.021  -1704385.364   6424319.534
10 0 59359  59262.000000  0   -2572913.443  -1978723.824   6065248.344
10 0 59359  59382.000000  0   -3334640.512  -2204827.102   5599523.315
10 0 59359  59502.000000  0   -4041630.702  -2379566.414   5035298.003
10 0 59359  59622.000000  0   -4680592.421  -2500948.250   4382464.671
10 0 59359  59742.000000  0   -5239392.281  -2568133.802   3652484.474
10 0 59359  59862.000000  0   -5707292.499  -2581433.541   2858188.942
10 0 59359  59982.000000  0   -6075165.594  -2542278.140   2013555.613
10 0 59359  60102.000000  0   -6335681.659  -2453166.794   1133459.427
10 0 59359  60222.000000  0   -6483460.478  -2317591.388    233403.209
10 0 59359  60342.000000  0   -6515184.812  -2139939.339   -670762.902
10 0 59359  60462.000000  0   -6429673.247  -1925377.781  -1563130.445
10 0 59359  60582.000000  0   -6227907.959  -1679722.251  -2428021.457
10 0 59359  60702.000000  0   -5913019.218  -1409293.567  -3250270.254
10 0 59359  60822.000000  0   -5490227.580  -1120766.571  -4015492.843
10 0 59359  60942.000000  0   -4966745.975   -821014.605  -4710338.710
10 0 59359  61062.000000  0   -4351644.513   -516953.183  -5322720.407
10 0 59359  61182.000000  0   -3655681.207   -215387.302  -5842016.744
10 0 59359  61302.000000  0   -2891104.011     77134.669  -6259246.405
10 0 59359  61422.000000  0   -2071429.708    354457.128  -6567210.987
10 0 59359  61542.000000  0   -1211203.027    610940.476  -6760607.929
10 0 59359  61662.000000  0    -325740.510    841570.700  -6836111.752
10 0 59359  61782.000000  0     569136.274   1042054.002  -6792423.685
10 0 59359  61902.000000  0    1457375.203   1208893.493  -6630293.145
10 0 59359  62022.000000  0    2322975.932   1339449.338  -6352508.003
10 0 59359  62142.000000  0    3150272.802   1431980.383  -5963851.547
10 0 59359  62262.000000  0    3924214.425   1485666.060  -5471027.386
10 0 59359  62382.000000  0    4630635.850   1500608.935  -4882555.242
10 0 59359  62502.000000  0    5256521.689   1477818.052  -4208635.624
10 0 59359  62622.000000  0    5790252.602   1419172.538  -3460982.765
10 0 59359  62742.000000  0    6221830.065   1327365.924  -2652629.520
10 0 59359  62862.000000  0    6543075.823   1205832.329  -1797705.959
10 0 59359  62982.000000  0    6747799.595   1058655.938   -911192.999
10 0 59359  63102.000000  0    6831929.169    890464.872     -8656.694
10 0 59359  63222.000000  0    6793598.598    706313.103    894031.027
99
